
    {
        "ARG_OF_PERICENTER": 8.3021,
        "BSTAR": 0.00059918,
        "CLASSIFICATION_TYPE": "U",
        "ECCENTRICITY": 0.0002771,
        "ELEMENT_SET_NO": 999,
        "EPHEMERIS_TYPE": 0,
        "EPOCH": "2026-05-04T00:21:54.491328",
        "INCLINATION": 98.0755,
        "MEAN_ANOMALY": 351.8263,
        "MEAN_MOTION": 15.3007569,
        "MEAN_MOTION_DDOT": 0,
        "MEAN_MOTION_DOT": 0.00017379,
        "NORAD_CAT_ID": 40024,
        "OBJECT_ID": "2014-033Q",
        "OBJECT_NAME": "NANOSATC-BR1",
        "RA_OF_ASC_NODE": 152.533,
        "REV_AT_EPOCH": 64722
    },
    {
        "ARG_OF_PERICENTER": 28.7684,
        "BSTAR": 0.0004617,
        "CLASSIFICATION_TYPE": "U",
        "ECCENTRICITY": 0.0009332,
        "ELEMENT_SET_NO": 999,
        "EPHEMERIS_TYPE": 0,
        "EPOCH": "2026-05-03T21:59:47.905152",
        "INCLINATION": 98.0978,
        "MEAN_ANOMALY": 331.4061,
        "MEAN_MOTION": 15.17571911,
        "MEAN_MOTION_DDOT": 0,
        "MEAN_MOTION_DOT": 9.212e-05,
        "NORAD_CAT_ID": 40025,
        "OBJECT_ID": "2014-033R",
        "OBJECT_NAME": "QB50P1",
        "RA_OF_ASC_NODE": 131.9813,
        "REV_AT_EPOCH": 64631
    },
    {
        "ARG_OF_PERICENTER": 339.825,
        "BSTAR": 0.00041514,
        "CLASSIFICATION_TYPE": "U",
        "ECCENTRICITY": 0.0006591,
        "ELEMENT_SET_NO": 999,
        "EPHEMERIS_TYPE": 0,
        "EPOCH": "2026-05-03T23:25:24.157920",
        "INCLINATION": 98.0756,
        "MEAN_ANOMALY": 20.2719,
        "MEAN_MOTION": 15.1459441,
        "MEAN_MOTION_DDOT": 0,
        "MEAN_MOTION_DOT": 7.595e-05,
        "NORAD_CAT_ID": 40032,
        "OBJECT_ID": "2014-033Y",
        "OBJECT_NAME": "QB50P2",
        "RA_OF_ASC_NODE": 118.1274,
        "REV_AT_EPOCH": 64597
    },
    {
        "ARG_OF_PERICENTER": 84.5734,
        "BSTAR": 0.00013777,
        "CLASSIFICATION_TYPE": "U",
        "ECCENTRICITY": 0.0013419,
        "ELEMENT_SET_NO": 999,
        "EPHEMERIS_TYPE": 0,
        "EPOCH": "2026-05-04T04:03:57.583008",
        "INCLINATION": 97.9949,
        "MEAN_ANOMALY": 275.7017,
        "MEAN_MOTION": 14.95375468,
        "MEAN_MOTION_DDOT": 0,
        "MEAN_MOTION_DOT": 1.462e-05,
        "NORAD_CAT_ID": 40037,
        "OBJECT_ID": "2014-033AD",
        "OBJECT_NAME": "PERSEUS-M2",
        "RA_OF_ASC_NODE": 73.8283,
        "REV_AT_EPOCH": 64420
    },
    {
        "ARG_OF_PERICENTER": 84.1945,
        "BSTAR": 0.0001293,
        "CLASSIFICATION_TYPE": "U",
        "ECCENTRICITY": 0.001319,
        "ELEMENT_SET_NO": 999,
        "EPHEMERIS_TYPE": 0,
        "EPOCH": "2026-05-04T01:53:36.566016",
        "INCLINATION": 97.9626,
        "MEAN_ANOMALY": 276.0779,
        "MEAN_MOTION": 14.95486564,
        "MEAN_MOTION_DDOT": 0,
        "MEAN_MOTION_DOT": 1.373e-05,
        "NORAD_CAT_ID": 40039,
        "OBJECT_ID": "2014-033AF",
        "OBJECT_NAME": "PERSEUS-M1",
        "RA_OF_ASC_NODE": 67.5,
        "REV_AT_EPOCH": 64404
    },
    {
        "ARG_OF_PERICENTER": 308.8675,
        "BSTAR": 0.00060149,
        "CLASSIFICATION_TYPE": "U",
        "ECCENTRICITY": 0.0005468,
        "ELEMENT_SET_NO": 999,
        "EPHEMERIS_TYPE": 0,
        "EPOCH": "2026-05-04T01:01:20.558784",
        "INCLINATION": 98.0974,
        "MEAN_ANOMALY": 51.2076,
        "MEAN_MOTION": 15.3176167,
        "MEAN_MOTION_DDOT": 0,
        "MEAN_MOTION_DOT": 0.00018391,
        "NORAD_CAT_ID": 40042,
        "OBJECT_ID": "2014-033AJ",
        "OBJECT_NAME": "POLYITAN-1",
        "RA_OF_ASC_NODE": 146.1781,
        "REV_AT_EPOCH": 64683
    },
    {
        "ARG_OF_PERICENTER": 218.575,
        "BSTAR": 0.00029088,
        "CLASSIFICATION_TYPE": "U",
        "ECCENTRICITY": 0.0048629,
        "ELEMENT_SET_NO": 999,
        "EPHEMERIS_TYPE": 0,
        "EPOCH": "2026-05-03T21:58:06.892320",
        "INCLINATION": 97.7777,
        "MEAN_ANOMALY": 141.1987,
        "MEAN_MOTION": 14.84974009,
        "MEAN_MOTION_DDOT": 0,
        "MEAN_MOTION_DOT": 2.476e-05,
        "NORAD_CAT_ID": 40043,
        "OBJECT_ID": "2014-033AK",
        "OBJECT_NAME": "TIGRISAT",
        "RA_OF_ASC_NODE": 274.9611,
        "REV_AT_EPOCH": 63905
    },
    {
        "ARG_OF_PERICENTER": 161.2482,
        "BSTAR": 0.00058359,
        "CLASSIFICATION_TYPE": "U",
        "ECCENTRICITY": 0.0039669,
        "ELEMENT_SET_NO": 999,
        "EPHEMERIS_TYPE": 0,
        "EPOCH": "2026-05-04T04:48:15.723072",
        "INCLINATION": 97.7189,
        "MEAN_ANOMALY": 199.0212,
        "MEAN_MOTION": 14.97604818,
        "MEAN_MOTION_DDOT": 0,
        "MEAN_MOTION_DOT": 6.874e-05,
        "NORAD_CAT_ID": 40045,
        "OBJECT_ID": "2014-033AM",
        "OBJECT_NAME": "AEROCUBE 6A",
        "RA_OF_ASC_NODE": 291.6422,
        "REV_AT_EPOCH": 64003
    },
    {
        "ARG_OF_PERICENTER": 153.7041,
        "BSTAR": 0.00054094,
        "CLASSIFICATION_TYPE": "U",
        "ECCENTRICITY": 0.0037381,
        "ELEMENT_SET_NO": 999,
        "EPHEMERIS_TYPE": 0,
        "EPOCH": "2026-05-04T04:16:21.164736",
        "INCLINATION": 97.7178,
        "MEAN_ANOMALY": 206.609,
        "MEAN_MOTION": 14.99037538,
        "MEAN_MOTION_DDOT": 0,
        "MEAN_MOTION_DOT": 6.598e-05,
        "NORAD_CAT_ID": 40046,
        "OBJECT_ID": "2014-033AN",
        "OBJECT_NAME": "AEROCUBE 6B",
        "RA_OF_ASC_NODE": 291.3241,
        "REV_AT_EPOCH": 64016
    },
    {
        "ARG_OF_PERICENTER": 147.8216,
        "BSTAR": 0.00012434,
        "CLASSIFICATION_TYPE": "U",
        "ECCENTRICITY": 0.0013408,
        "ELEMENT_SET_NO": 999,
        "EPHEMERIS_TYPE": 0,
        "EPOCH": "2026-05-04T02:34:58.717920",
        "INCLINATION": 98.3179,
        "MEAN_ANOMALY": 212.3816,
        "MEAN_MOTION": 14.81183102,
        "MEAN_MOTION_DDOT": 0,
        "MEAN_MOTION_DOT": 9.11e-06,
        "NORAD_CAT_ID": 40055,
        "OBJECT_ID": "2014-034C",
        "OBJECT_NAME": "CANX-4",
        "RA_OF_ASC_NODE": 357.7915,
        "REV_AT_EPOCH": 63800
    },
    {
        "ARG_OF_PERICENTER": 148.0383,
        "BSTAR": 0.00012539,
        "CLASSIFICATION_TYPE": "U",
        "ECCENTRICITY": 0.0013405,
        "ELEMENT_SET_NO": 999,
        "EPHEMERIS_TYPE": 0,
        "EPOCH": "2026-05-04T02:33:27.251424",
        "INCLINATION": 98.3182,
        "MEAN_ANOMALY": 212.1645,
        "MEAN_MOTION": 14.81200165,
        "MEAN_MOTION_DDOT": 0,
        "MEAN_MOTION_DOT": 9.2e-06,
        "NORAD_CAT_ID": 40056,
        "OBJECT_ID": "2014-034D",
        "OBJECT_NAME": "CANX-5",
        "RA_OF_ASC_NODE": 357.8314,
        "REV_AT_EPOCH": 62881
    },
    {
        "ARG_OF_PERICENTER": 38.9454,
        "BSTAR": 0.00050915,
        "CLASSIFICATION_TYPE": "U",
        "ECCENTRICITY": 0.0001156,
        "ELEMENT_SET_NO": 999,
        "EPHEMERIS_TYPE": 0,
        "EPOCH": "2026-05-03T22:18:11.835360",
        "INCLINATION": 98.4245,
        "MEAN_ANOMALY": 321.1858,
        "MEAN_MOTION": 15.1285689,
        "MEAN_MOTION_DDOT": 0,
        "MEAN_MOTION_DOT": 8.88e-05,
        "NORAD_CAT_ID": 40074,
        "OBJECT_ID": "2014-037F",
        "OBJECT_NAME": "UKUBE-1",
        "RA_OF_ASC_NODE": 122.5794,
        "REV_AT_EPOCH": 64186
    },
    {
        "ARG_OF_PERICENTER": 253.7448,
        "BSTAR": 0.00024124,
        "CLASSIFICATION_TYPE": "U",
        "ECCENTRICITY": 0.0012663,
        "ELEMENT_SET_NO": 999,
        "EPHEMERIS_TYPE": 0,
        "EPOCH": "2026-05-04T01:12:22.946112",
        "INCLINATION": 97.9045,
        "MEAN_ANOMALY": 106.2379,
        "MEAN_MOTION": 14.94428702,
        "MEAN_MOTION_DDOT": 0,
        "MEAN_MOTION_DOT": 2.544e-05,
        "NORAD_CAT_ID": 40119,
        "OBJECT_ID": "2014-049B",
        "OBJECT_NAME": "BRITE-PL2 (HEWELIUSZ)",
        "RA_OF_ASC_NODE": 235.7278,
        "REV_AT_EPOCH": 63485
    }