NANOSATC-BR1            
1 40024U 14033Q   26124.01521402  .00017379  00000+0  59918-3 0  9992
2 40024  98.0755 152.5330 0002771   8.3021 351.8263 15.30075690647221
QB50P1                  
1 40025U 14033R   26123.91652668  .00009212  00000+0  46170-3 0  9993
2 40025  98.0978 131.9813 0009332  28.7684 331.4061 15.17571911646318
QB50P2                  
1 40032U 14033Y   26123.97597405  .00007595  00000+0  41514-3 0  9993
2 40032  98.0756 118.1274 0006591 339.8250  20.2719 15.14594410645977
PERSEUS-M2              
1 40037U 14033AD  26124.16941647  .00001462  00000+0  13777-3 0  9998
2 40037  97.9949  73.8283 0013419  84.5734 275.7017 14.95375468644200
PERSEUS-M1              
1 40039U 14033AF  26124.07889544  .00001373  00000+0  12930-3 0  9998
2 40039  97.9626  67.5000 0013190  84.1945 276.0779 14.95486564644048
POLYITAN-1              
1 40042U 14033AJ  26124.04259906  .00018391  00000+0  60149-3 0  9995
2 40042  98.0974 146.1781 0005468 308.8675  51.2076 15.31761670646832
TIGRISAT                
1 40043U 14033AK  26123.91535755  .00002476  00000+0  29088-3 0  9994
2 40043  97.7777 274.9611 0048629 218.5750 141.1987 14.84974009639054
AEROCUBE 6A             
1 40045U 14033AM  26124.20018198  .00006874  00000+0  58359-3 0  9995
2 40045  97.7189 291.6422 0039669 161.2482 199.0212 14.97604818640034
AEROCUBE 6B             
1 40046U 14033AN  26124.17802274  .00006598  00000+0  54094-3 0  9993
2 40046  97.7178 291.3241 0037381 153.7041 206.6090 14.99037538640169
CANX-4                  
1 40055U 14034C   26124.10762405  .00000911  00000+0  12434-3 0  9993
2 40055  98.3179 357.7915 0013408 147.8216 212.3816 14.81183102638004
CANX-5                  
1 40056U 14034D   26124.10656541  .00000920  00000+0  12539-3 0  9993
2 40056  98.3182 357.8314 0013405 148.0383 212.1645 14.81200165628813
UKUBE-1                 
1 40074U 14037F   26123.92930365  .00008880  00000+0  50915-3 0  9997
2 40074  98.4245 122.5794 0001156  38.9454 321.1858 15.12856890641863
BRITE-PL2 (HEWELIUSZ)   
1 40119U 14049B   26124.05026558  .00002544  00000+0  24124-3 0  9999
2 40119  97.9045 235.7278 0012663 253.7448 106.2379 14.94428702634851
